CCSDS_OMM_VERS = 2.0
CREATION_DATE  = 
ORIGINATOR     = 

OBJECT_NAME    = STARLINK-35822
OBJECT_ID      = 2025-254Q
CENTER_NAME    = EARTH
REF_FRAME      = TEME
TIME_SYSTEM    = UTC
MEAN_ELEMENT_THEORY = SGP/SGP4

EPOCH          = 2025-11-19T06:13:17.099616
MEAN_MOTION    = 15.82982764
ECCENTRICITY   = .00090427
INCLINATION    = 53.1570
RA_OF_ASC_NODE = 31.4743
ARG_OF_PERICENTER = 219.7560
MEAN_ANOMALY   = 140.2802

EPHEMERIS_TYPE = 0
CLASSIFICATION_TYPE = U
NORAD_CAT_ID   = 66362
ELEMENT_SET_NO = 999
REV_AT_EPOCH   = 198
BSTAR          = .22060524E-2
MEAN_MOTION_DOT = .509688E-2
MEAN_MOTION_DDOT = 0

CCSDS_OMM_VERS = 2.0
CREATION_DATE  = 
ORIGINATOR     = 

OBJECT_NAME    = STARLINK-35806
OBJECT_ID      = 2025-254R
CENTER_NAME    = EARTH
REF_FRAME      = TEME
TIME_SYSTEM    = UTC
MEAN_ELEMENT_THEORY = SGP/SGP4

EPOCH          = 2025-11-19T04:43:37.026048
MEAN_MOTION    = 15.81694995
ECCENTRICITY   = .00032989
INCLINATION    = 53.1569
RA_OF_ASC_NODE = 31.7966
ARG_OF_PERICENTER = 225.4171
MEAN_ANOMALY   = 134.6583

EPHEMERIS_TYPE = 0
CLASSIFICATION_TYPE = U
NORAD_CAT_ID   = 66363
ELEMENT_SET_NO = 999
REV_AT_EPOCH   = 197
BSTAR          = .20506695E-2
MEAN_MOTION_DOT = .441907E-2
MEAN_MOTION_DDOT = 0

CCSDS_OMM_VERS = 2.0
CREATION_DATE  = 
ORIGINATOR     = 

OBJECT_NAME    = STARLINK-35797
OBJECT_ID      = 2025-254S
CENTER_NAME    = EARTH
REF_FRAME      = TEME
TIME_SYSTEM    = UTC
MEAN_ELEMENT_THEORY = SGP/SGP4

EPOCH          = 2025-11-19T00:00:02.000160
MEAN_MOTION    = 15.80866563
ECCENTRICITY   = .000064
INCLINATION    = 53.1565
RA_OF_ASC_NODE = 32.7415
ARG_OF_PERICENTER = 81.7598
MEAN_ANOMALY   = 256.6784

EPHEMERIS_TYPE = 0
CLASSIFICATION_TYPE = U
NORAD_CAT_ID   = 66364
ELEMENT_SET_NO = 999
REV_AT_EPOCH   = 310
BSTAR          = -.93856922E-2
MEAN_MOTION_DOT = -.1616212E-1
MEAN_MOTION_DDOT = 0

CCSDS_OMM_VERS = 2.0
CREATION_DATE  = 
ORIGINATOR     = 

OBJECT_NAME    = STARLINK-35827
OBJECT_ID      = 2025-254T
CENTER_NAME    = EARTH
REF_FRAME      = TEME
TIME_SYSTEM    = UTC
MEAN_ELEMENT_THEORY = SGP/SGP4

EPOCH          = 2025-11-19T06:12:06.846048
MEAN_MOTION    = 15.80300660
ECCENTRICITY   = .00030729
INCLINATION    = 53.1572
RA_OF_ASC_NODE = 31.4675
ARG_OF_PERICENTER = 346.1032
MEAN_ANOMALY   = 13.9906

EPHEMERIS_TYPE = 0
CLASSIFICATION_TYPE = U
NORAD_CAT_ID   = 66365
ELEMENT_SET_NO = 999
REV_AT_EPOCH   = 198
BSTAR          = -.63029073E-3
MEAN_MOTION_DOT = -.120237E-2
MEAN_MOTION_DDOT = 0

CCSDS_OMM_VERS = 2.0
CREATION_DATE  = 
ORIGINATOR     = 

OBJECT_NAME    = STARLINK-35845
OBJECT_ID      = 2025-254U
CENTER_NAME    = EARTH
REF_FRAME      = TEME
TIME_SYSTEM    = UTC
MEAN_ELEMENT_THEORY = SGP/SGP4

EPOCH          = 2025-11-19T06:10:57.041760
MEAN_MOTION    = 15.84930079
ECCENTRICITY   = .00169205
INCLINATION    = 53.1569
RA_OF_ASC_NODE = 31.4614
ARG_OF_PERICENTER = 243.2242
MEAN_ANOMALY   = 116.7052

EPHEMERIS_TYPE = 0
CLASSIFICATION_TYPE = U
NORAD_CAT_ID   = 66366
ELEMENT_SET_NO = 999
REV_AT_EPOCH   = 198
BSTAR          = .17796433E-2
MEAN_MOTION_DOT = .450929E-2
MEAN_MOTION_DDOT = 0

CCSDS_OMM_VERS = 2.0
CREATION_DATE  = 
ORIGINATOR     = 

OBJECT_NAME    = STARLINK-35846
OBJECT_ID      = 2025-254V
CENTER_NAME    = EARTH
REF_FRAME      = TEME
TIME_SYSTEM    = UTC
MEAN_ELEMENT_THEORY = SGP/SGP4

EPOCH          = 2025-11-19T06:11:31.856640
MEAN_MOTION    = 15.80323261
ECCENTRICITY   = .00020897
INCLINATION    = 53.1570
RA_OF_ASC_NODE = 31.4647
ARG_OF_PERICENTER = 354.7200
MEAN_ANOMALY   = 5.3800

EPHEMERIS_TYPE = 0
CLASSIFICATION_TYPE = U
NORAD_CAT_ID   = 66367
ELEMENT_SET_NO = 999
REV_AT_EPOCH   = 198
BSTAR          = -.1264625E-2
MEAN_MOTION_DOT = -.23753E-2
MEAN_MOTION_DDOT = 0

CCSDS_OMM_VERS = 2.0
CREATION_DATE  = 
ORIGINATOR     = 

OBJECT_NAME    = STARLINK-34861
OBJECT_ID      = 2025-254W
CENTER_NAME    = EARTH
REF_FRAME      = TEME
TIME_SYSTEM    = UTC
MEAN_ELEMENT_THEORY = SGP/SGP4

EPOCH          = 2025-11-19T06:10:21.068256
MEAN_MOTION    = 15.80219740
ECCENTRICITY   = .0002708
INCLINATION    = 53.1565
RA_OF_ASC_NODE = 31.4576
ARG_OF_PERICENTER = 333.5106
MEAN_ANOMALY   = 26.5778

EPHEMERIS_TYPE = 0
CLASSIFICATION_TYPE = U
NORAD_CAT_ID   = 66368
ELEMENT_SET_NO = 999
REV_AT_EPOCH   = 198
BSTAR          = -.13068368E-2
MEAN_MOTION_DOT = -.24413E-2
MEAN_MOTION_DDOT = 0

CCSDS_OMM_VERS = 2.0
CREATION_DATE  = 
ORIGINATOR     = 

OBJECT_NAME    = STARLINK-35795
OBJECT_ID      = 2025-254X
CENTER_NAME    = EARTH
REF_FRAME      = TEME
TIME_SYSTEM    = UTC
MEAN_ELEMENT_THEORY = SGP/SGP4

EPOCH          = 2025-11-19T04:38:42.759744
MEAN_MOTION    = 15.83335616
ECCENTRICITY   = .00072228
INCLINATION    = 53.1564
RA_OF_ASC_NODE = 31.7726
ARG_OF_PERICENTER = 232.7086
MEAN_ANOMALY   = 127.3280

EPHEMERIS_TYPE = 0
CLASSIFICATION_TYPE = U
NORAD_CAT_ID   = 66369
ELEMENT_SET_NO = 999
REV_AT_EPOCH   = 197
BSTAR          = -.35438392E-2
MEAN_MOTION_DOT = -.726023E-2
MEAN_MOTION_DDOT = 0

CCSDS_OMM_VERS = 2.0
CREATION_DATE  = 
ORIGINATOR     = 

OBJECT_NAME    = STARLINK-35824
OBJECT_ID      = 2025-254Y
CENTER_NAME    = EARTH
REF_FRAME      = TEME
TIME_SYSTEM    = UTC
MEAN_ELEMENT_THEORY = SGP/SGP4

EPOCH          = 2025-11-19T00:00:02.000160
MEAN_MOTION    = 15.73009276
ECCENTRICITY   = .0004522
INCLINATION    = 53.1570
RA_OF_ASC_NODE = 32.7773
ARG_OF_PERICENTER = 337.1244
MEAN_ANOMALY   = 343.6414

EPHEMERIS_TYPE = 0
CLASSIFICATION_TYPE = U
NORAD_CAT_ID   = 66370
ELEMENT_SET_NO = 999
REV_AT_EPOCH   = 307
BSTAR          = .6639546E-1
MEAN_MOTION_DOT = .11656309E+0
MEAN_MOTION_DDOT = 0

CCSDS_OMM_VERS = 2.0
CREATION_DATE  = 
ORIGINATOR     = 

OBJECT_NAME    = STARLINK-35804
OBJECT_ID      = 2025-254Z
CENTER_NAME    = EARTH
REF_FRAME      = TEME
TIME_SYSTEM    = UTC
MEAN_ELEMENT_THEORY = SGP/SGP4

EPOCH          = 2025-11-19T06:08:26.493216
MEAN_MOTION    = 15.79969074
ECCENTRICITY   = .00031284
INCLINATION    = 53.1567
RA_OF_ASC_NODE = 31.4498
ARG_OF_PERICENTER = 341.8781
MEAN_ANOMALY   = 18.2130

EPHEMERIS_TYPE = 0
CLASSIFICATION_TYPE = U
NORAD_CAT_ID   = 66371
ELEMENT_SET_NO = 999
REV_AT_EPOCH   = 198
BSTAR          = -.6325645E-3
MEAN_MOTION_DOT = -.118875E-2
MEAN_MOTION_DDOT = 0

CCSDS_OMM_VERS = 2.0
CREATION_DATE  = 
ORIGINATOR     = 

OBJECT_NAME    = STARLINK-35821
OBJECT_ID      = 2025-254AA
CENTER_NAME    = EARTH
REF_FRAME      = TEME
TIME_SYSTEM    = UTC
MEAN_ELEMENT_THEORY = SGP/SGP4

EPOCH          = 2025-11-19T06:09:06.347808
MEAN_MOTION    = 15.80090968
ECCENTRICITY   = .00030262
INCLINATION    = 53.1571
RA_OF_ASC_NODE = 31.4527
ARG_OF_PERICENTER = 341.2016
MEAN_ANOMALY   = 18.8894

EPHEMERIS_TYPE = 0
CLASSIFICATION_TYPE = U
NORAD_CAT_ID   = 66372
ELEMENT_SET_NO = 999
REV_AT_EPOCH   = 198
BSTAR          = -.13543851E-2
MEAN_MOTION_DOT = -.251317E-2
MEAN_MOTION_DDOT = 0

CCSDS_OMM_VERS = 2.0
CREATION_DATE  = 
ORIGINATOR     = 

OBJECT_NAME    = STARLINK-35809
OBJECT_ID      = 2025-254AB
CENTER_NAME    = EARTH
REF_FRAME      = TEME
TIME_SYSTEM    = UTC
MEAN_ELEMENT_THEORY = SGP/SGP4

EPOCH          = 2025-11-19T00:00:02.000160
MEAN_MOTION    = 15.66427650
ECCENTRICITY   = .00150635
INCLINATION    = 53.1580
RA_OF_ASC_NODE = 32.7809
ARG_OF_PERICENTER = 282.2680
MEAN_ANOMALY   = 31.6118

EPHEMERIS_TYPE = 0
CLASSIFICATION_TYPE = U
NORAD_CAT_ID   = 66373
ELEMENT_SET_NO = 999
REV_AT_EPOCH   = 310
BSTAR          = .19801091E+0
MEAN_MOTION_DOT = .21226236E+0
MEAN_MOTION_DDOT = 0

CCSDS_OMM_VERS = 2.0
CREATION_DATE  = 
ORIGINATOR     = 

OBJECT_NAME    = STARLINK-35831
OBJECT_ID      = 2025-254AC
CENTER_NAME    = EARTH
REF_FRAME      = TEME
TIME_SYSTEM    = UTC
MEAN_ELEMENT_THEORY = SGP/SGP4

EPOCH          = 2025-11-19T06:07:17.611680
MEAN_MOTION    = 15.79903603
ECCENTRICITY   = .00023392
INCLINATION    = 53.1567
RA_OF_ASC_NODE = 31.4426
ARG_OF_PERICENTER = 345.7761
MEAN_ANOMALY   = 14.3195

EPHEMERIS_TYPE = 0
CLASSIFICATION_TYPE = U
NORAD_CAT_ID   = 66374
ELEMENT_SET_NO = 999
REV_AT_EPOCH   = 198
BSTAR          = -.72129842E-3
MEAN_MOTION_DOT = -.134776E-2
MEAN_MOTION_DDOT = 0

CCSDS_OMM_VERS = 2.0
CREATION_DATE  = 
ORIGINATOR     = 

OBJECT_NAME    = STARLINK-35826
OBJECT_ID      = 2025-254AD
CENTER_NAME    = EARTH
REF_FRAME      = TEME
TIME_SYSTEM    = UTC
MEAN_ELEMENT_THEORY = SGP/SGP4

EPOCH          = 2025-11-19T06:06:44.412480
MEAN_MOTION    = 15.79858636
ECCENTRICITY   = .0002146
INCLINATION    = 53.1567
RA_OF_ASC_NODE = 31.4405
ARG_OF_PERICENTER = 353.9755
MEAN_ANOMALY   = 6.1241

EPHEMERIS_TYPE = 0
CLASSIFICATION_TYPE = U
NORAD_CAT_ID   = 66375
ELEMENT_SET_NO = 999
REV_AT_EPOCH   = 198
BSTAR          = -.3364973E-3
MEAN_MOTION_DOT = -.63626E-3
MEAN_MOTION_DDOT = 0

CCSDS_OMM_VERS = 2.0
CREATION_DATE  = 
ORIGINATOR     = 

OBJECT_NAME    = SHIYAN-32 A
OBJECT_ID      = 2025-255A
CENTER_NAME    = EARTH
REF_FRAME      = TEME
TIME_SYSTEM    = UTC
MEAN_ELEMENT_THEORY = SGP/SGP4

EPOCH          = 2025-11-19T05:29:30.842016
MEAN_MOTION    = 15.41629916
ECCENTRICITY   = .00131367
INCLINATION    = 52.9972
RA_OF_ASC_NODE = 289.7299
ARG_OF_PERICENTER = 327.9935
MEAN_ANOMALY   = 32.0269

EPHEMERIS_TYPE = 0
CLASSIFICATION_TYPE = U
NORAD_CAT_ID   = 66376
ELEMENT_SET_NO = 999
REV_AT_EPOCH   = 172
BSTAR          = .4843488E-3
MEAN_MOTION_DOT = .20409E-3
MEAN_MOTION_DDOT = 0

